CSS (TIANHE)            
1 48274U 21035A   23241.26633203  .00027486  00000+0  31490-3 0  9999
2 48274  41.4737  71.5816 0010822 258.8990 101.0632 15.61417263133258
